start=new Date('2021-10-19T00:00:00.000Z').valueOf();
sats=[{"SEMIMAJOR_AXIS":"6925.352","PERIOD":"95.592","COUNTRY_CODE":"US","EPOCH":"2021-10-18T07:58:41.946816","BSTAR":"0.00015824000000","CENTER_NAME":"EARTH","LAUNCH_DATE":"2020-01-29","MEAN_ELEMENT_THEORY":"SGP4","RA_OF_ASC_NODE":"264.3800","PERIAPSIS":"546.112","SITE":"AFETR","FILE":"3170121","ECCENTRICITY":"0.00015950","GP_ID":"187502510","MEAN_MOTION_DOT":"0.00002076","MEAN_MOTION_DDOT":"0.0000000000000","OBJECT_NAME":"STARLINK-1172","OBJECT_TYPE":"PAYLOAD","MEAN_MOTION":"15.06398944","REF_FRAME":"TEME","EPHEMERIS_TYPE":"0","CLASSIFICATION_TYPE":"U","NORAD_CAT_ID":"45074","ELEMENT_SET_NO":"999","TIME_SYSTEM":"UTC","ARG_OF_PERICENTER":"68.2499","MEAN_ANOMALY":"291.8660","REV_AT_EPOCH":"9507","OBJECT_ID":"2020-006AG","RCS_SIZE":"LARGE","INCLINATION":"53.0548","DECAY_DATE":null,"APOAPSIS":"548.321","TLE_LINE2":"2 45074  53.0548 264.3800 0001595  68.2499 291.8660 15.06398944 95070","TLE_LINE1":"1 45074U 20006AG  21291.33242994  .00002076  00000-0  15824-3 0  9997"},{"TLE_LINE2":"2 45075  53.0552 263.0397 0001588  68.4567 291.6591 15.06398620 95121","TLE_LINE1":"1 45075U 20006AH  21291.63099048  .00001992  00000-0  15259-3 0  9999","APOAPSIS":"548.318","INCLINATION":"53.0552","DECAY_DATE":null,"RCS_SIZE":"LARGE","OBJECT_ID":"2020-006AH","REV_AT_EPOCH":"9512","ARG_OF_PERICENTER":"68.4567","MEAN_ANOMALY":"291.6591","ELEMENT_SET_NO":"999","TIME_SYSTEM":"UTC","NORAD_CAT_ID":"45075","CLASSIFICATION_TYPE":"U","EPHEMERIS_TYPE":"0","REF_FRAME":"TEME","MEAN_MOTION":"15.06398620","OBJECT_TYPE":"PAYLOAD","OBJECT_NAME":"STARLINK-1174","MEAN_MOTION_DDOT":"0.0000000000000","MEAN_MOTION_DOT":"0.00001992","ECCENTRICITY":"0.00015880","GP_ID":"187534901","FILE":"3170620","SITE":"AFETR","PERIAPSIS":"546.118","RA_OF_ASC_NODE":"263.0397","MEAN_ELEMENT_THEORY":"SGP4","CENTER_NAME":"EARTH","LAUNCH_DATE":"2020-01-29","COUNTRY_CODE":"US","BSTAR":"0.00015259000000","EPOCH":"2021-10-18T15:08:37.577472","SEMIMAJOR_AXIS":"6925.353","PERIOD":"95.592"},{"ECCENTRICITY":"0.00014910","GP_ID":"187535153","MEAN_MOTION_DDOT":"0.0000000000000","MEAN_MOTION_DOT":"0.00002325","SITE":"AFETR","FILE":"3170620","MEAN_MOTION":"15.06408598","REF_FRAME":"TEME","EPHEMERIS_TYPE":"0","OBJECT_NAME":"STARLINK-1180","OBJECT_TYPE":"PAYLOAD","COUNTRY_CODE":"US","BSTAR":"0.00017486000000","EPOCH":"2021-10-18T15:19:12.779904","SEMIMAJOR_AXIS":"6925.322","PERIOD":"95.592","MEAN_ELEMENT_THEORY":"SGP4","PERIAPSIS":"546.155","RA_OF_ASC_NODE":"262.9978","CENTER_NAME":"EARTH","LAUNCH_DATE":"2020-01-29","RCS_SIZE":"LARGE","INCLINATION":"53.0541","DECAY_DATE":null,"REV_AT_EPOCH":"9512","OBJECT_ID":"2020-006AJ","TLE_LINE2":"2 45076  53.0541 262.9978 0001491  72.0953 288.0198 15.06408598 95125","TLE_LINE1":"1 45076U 20006AJ  21291.63834236  .00002325  00000-0  17486-3 0  9991","APOAPSIS":"548.220","NORAD_CAT_ID":"45076","CLASSIFICATION_TYPE":"U","MEAN_ANOMALY":"288.0198","ARG_OF_PERICENTER":"72.0953","ELEMENT_SET_NO":"999","TIME_SYSTEM":"UTC"},{"TLE_LINE1":"1 45077U 20006AK  21291.39461496  .00001627  00000-0  50215-4 0  9991","TLE_LINE2":"2 45077  53.0555 245.7885 0001417  70.9850 289.1307 15.39907649 95343","APOAPSIS":"447.351","RCS_SIZE":"LARGE","DECAY_DATE":null,"INCLINATION":"53.0555","OBJECT_ID":"2020-006AK","REV_AT_EPOCH":"9534","ARG_OF_PERICENTER":"70.9850","MEAN_ANOMALY":"289.1307","ELEMENT_SET_NO":"999","TIME_SYSTEM":"UTC","NORAD_CAT_ID":"45077","CLASSIFICATION_TYPE":"U","MEAN_MOTION":"15.39907649","REF_FRAME":"TEME","EPHEMERIS_TYPE":"0","OBJECT_NAME":"STARLINK-1182","OBJECT_TYPE":"PAYLOAD","GP_ID":"187502263","ECCENTRICITY":"0.00014170","MEAN_MOTION_DDOT":"0.0000000000000","MEAN_MOTION_DOT":"0.00001627","SITE":"AFETR","FILE":"3170121","MEAN_ELEMENT_THEORY":"SGP4","RA_OF_ASC_NODE":"245.7885","PERIAPSIS":"445.417","LAUNCH_DATE":"2020-01-29","CENTER_NAME":"EARTH","BSTAR":"0.00005021500000","EPOCH":"2021-10-18T09:28:14.732544","COUNTRY_CODE":"US","SEMIMAJOR_AXIS":"6824.519","PERIOD":"93.512"},{"SITE":"AFETR","FILE":"3170620","GP_ID":"187534152","ECCENTRICITY":"0.00017160","MEAN_MOTION_DDOT":"0.0000000000000","MEAN_MOTION_DOT":"0.00000148","OBJECT_NAME":"STARLINK-1177","OBJECT_TYPE":"PAYLOAD","MEAN_MOTION":"15.06397826","REF_FRAME":"TEME","EPHEMERIS_TYPE":"0","SEMIMAJOR_AXIS":"6925.355","PERIOD":"95.592","COUNTRY_CODE":"US","BSTAR":"0.00002885400000","EPOCH":"2021-10-18T15:45:45.535392","CENTER_NAME":"EARTH","LAUNCH_DATE":"2020-01-29","MEAN_ELEMENT_THEORY":"SGP4","PERIAPSIS":"546.032","RA_OF_ASC_NODE":"262.9085","REV_AT_EPOCH":"9511","OBJECT_ID":"2020-006AL","RCS_SIZE":"LARGE","INCLINATION":"53.0559","DECAY_DATE":null,"APOAPSIS":"548.409","TLE_LINE2":"2 45078  53.0559 262.9085 0001716  69.4606 290.6567 15.06397826 95119","TLE_LINE1":"1 45078U 20006AL  21291.65677703  .00000148  00000-0  28854-4 0  9992","CLASSIFICATION_TYPE":"U","NORAD_CAT_ID":"45078","ELEMENT_SET_NO":"999","TIME_SYSTEM":"UTC","MEAN_ANOMALY":"290.6567","ARG_OF_PERICENTER":"69.4606"},{"TLE_LINE2":"2 45079  53.0534 261.8314 0001177  78.1155 281.9966 15.06395212 95150","TLE_LINE1":"1 45079U 20006AM  21291.90004383  .00001769  00000-0  13765-3 0  9993","APOAPSIS":"548.043","RCS_SIZE":"LARGE","INCLINATION":"53.0534","DECAY_DATE":null,"REV_AT_EPOCH":"9515","OBJECT_ID":"2020-006AM","ARG_OF_PERICENTER":"78.1155","MEAN_ANOMALY":"281.9966","TIME_SYSTEM":"UTC","ELEMENT_SET_NO":"999","NORAD_CAT_ID":"45079","CLASSIFICATION_TYPE":"U","MEAN_MOTION":"15.06395212","REF_FRAME":"TEME","EPHEMERIS_TYPE":"0","OBJECT_NAME":"STARLINK-1149","OBJECT_TYPE":"PAYLOAD","GP_ID":"187534402","ECCENTRICITY":"0.00011770","MEAN_MOTION_DDOT":"0.0000000000000","MEAN_MOTION_DOT":"0.00001769","SITE":"AFETR","FILE":"3170620","MEAN_ELEMENT_THEORY":"SGP4","PERIAPSIS":"546.413","RA_OF_ASC_NODE":"261.8314","CENTER_NAME":"EARTH","LAUNCH_DATE":"2020-01-29","COUNTRY_CODE":"US","EPOCH":"2021-10-18T21:36:03.786912","BSTAR":"0.00013765000000","SEMIMAJOR_AXIS":"6925.363","PERIOD":"95.592"},{"APOAPSIS":"548.301","TLE_LINE2":"2 45080  53.0541 262.9818 0001596  70.5428 289.5733 15.06405727 95121","TLE_LINE1":"1 45080U 20006AN  21291.64202831  .00001767  00000-0  13750-3 0  9996","OBJECT_ID":"2020-006AN","REV_AT_EPOCH":"9512","RCS_SIZE":"LARGE","INCLINATION":"53.0541","DECAY_DATE":null,"ELEMENT_SET_NO":"999","TIME_SYSTEM":"UTC","ARG_OF_PERICENTER":"70.5428","MEAN_ANOMALY":"289.5733","CLASSIFICATION_TYPE":"U","NORAD_CAT_ID":"45080","OBJECT_NAME":"STARLINK-1153","OBJECT_TYPE":"PAYLOAD","MEAN_MOTION":"15.06405727","EPHEMERIS_TYPE":"0","REF_FRAME":"TEME","SITE":"AFETR","FILE":"3170620","GP_ID":"187535653","ECCENTRICITY":"0.00015960","MEAN_MOTION_DOT":"0.00001767","MEAN_MOTION_DDOT":"0.0000000000000","CENTER_NAME":"EARTH","LAUNCH_DATE":"2020-01-29","MEAN_ELEMENT_THEORY":"SGP4","RA_OF_ASC_NODE":"262.9818","PERIAPSIS":"546.091","PERIOD":"95.592","SEMIMAJOR_AXIS":"6925.331","COUNTRY_CODE":"US","BSTAR":"0.00013750000000","EPOCH":"2021-10-18T15:24:31.245984"},{"EPHEMERIS_TYPE":"0","REF_FRAME":"TEME","MEAN_MOTION":"15.06403497","OBJECT_TYPE":"PAYLOAD","OBJECT_NAME":"STARLINK-1151","MEAN_MOTION_DDOT":"0.0000000000000","MEAN_MOTION_DOT":"0.00002569","GP_ID":"187535904","ECCENTRICITY":"0.00015160","FILE":"3170620","SITE":"AFETR","RA_OF_ASC_NODE":"263.0873","PERIAPSIS":"546.153","MEAN_ELEMENT_THEORY":"SGP4","LAUNCH_DATE":"2020-01-29","CENTER_NAME":"EARTH","EPOCH":"2021-10-18T14:52:42.090240","BSTAR":"0.00019127000000","COUNTRY_CODE":"US","PERIOD":"95.592","SEMIMAJOR_AXIS":"6925.338","TLE_LINE1":"1 45081U 20006AP  21291.61993160  .00002569  00000-0  19127-3 0  9991","TLE_LINE2":"2 45081  53.0549 263.0873 0001516  68.0549 292.0601 15.06403497 95126","APOAPSIS":"548.253","DECAY_DATE":null,"INCLINATION":"53.0549","RCS_SIZE":"LARGE","OBJECT_ID":"2020-006AP","REV_AT_EPOCH":"9512","MEAN_ANOMALY":"292.0601","ARG_OF_PERICENTER":"68.0549","ELEMENT_SET_NO":"999","TIME_SYSTEM":"UTC","NORAD_CAT_ID":"45081","CLASSIFICATION_TYPE":"U"},{"MEAN_MOTION_DDOT":"0.0000000000000","MEAN_MOTION_DOT":"-0.00000090","GP_ID":"187502511","ECCENTRICITY":"0.00013530","FILE":"3170121","SITE":"AFETR","EPHEMERIS_TYPE":"0","REF_FRAME":"TEME","MEAN_MOTION":"15.06396967","OBJECT_TYPE":"PAYLOAD","OBJECT_NAME":"STARLINK-1160","BSTAR":"0.00001282200000","EPOCH":"2021-10-18T09:50:07.863936","COUNTRY_CODE":"US","PERIOD":"95.592","SEMIMAJOR_AXIS":"6925.358","PERIAPSIS":"546.286","RA_OF_ASC_NODE":"264.0287","MEAN_ELEMENT_THEORY":"SGP4","LAUNCH_DATE":"2020-01-29","CENTER_NAME":"EARTH","DECAY_DATE":null,"INCLINATION":"53.0528","RCS_SIZE":"LARGE","OBJECT_ID":"2020-006AQ","REV_AT_EPOCH":"9508","TLE_LINE1":"1 45082U 20006AQ  21291.40981324 -.00000090  00000-0  12822-4 0  9992","TLE_LINE2":"2 45082  53.0528 264.0287 0001353  74.6959 285.4179 15.06396967 95085","APOAPSIS":"548.160","NORAD_CAT_ID":"45082","CLASSIFICATION_TYPE":"U","ARG_OF_PERICENTER":"74.6959","MEAN_ANOMALY":"285.4179","TIME_SYSTEM":"UTC","ELEMENT_SET_NO":"999"},{"APOAPSIS":"548.246","TLE_LINE1":"1 45083U 20006AR  21291.50752355  .00001489  00000-0  11883-3 0  9991","TLE_LINE2":"2 45083  53.0545 283.5901 0001455  72.5482 287.5666 15.06391889 94828","OBJECT_ID":"2020-006AR","REV_AT_EPOCH":"9482","DECAY_DATE":null,"INCLINATION":"53.0545","RCS_SIZE":"LARGE","TIME_SYSTEM":"UTC","ELEMENT_SET_NO":"999","ARG_OF_PERICENTER":"72.5482","MEAN_ANOMALY":"287.5666","CLASSIFICATION_TYPE":"U","NORAD_CAT_ID":"45083","OBJECT_TYPE":"PAYLOAD","OBJECT_NAME":"STARLINK-1190","REF_FRAME":"TEME","EPHEMERIS_TYPE":"0","MEAN_MOTION":"15.06391889","FILE":"3170121","SITE":"AFETR","MEAN_MOTION_DOT":"0.00001489","MEAN_MOTION_DDOT":"0.0000000000000","GP_ID":"187501262","ECCENTRICITY":"0.00014550","LAUNCH_DATE":"2020-01-29","CENTER_NAME":"EARTH","RA_OF_ASC_NODE":"283.5901","PERIAPSIS":"546.231","MEAN_ELEMENT_THEORY":"SGP4","PERIOD":"95.593","SEMIMAJOR_AXIS":"6925.373","EPOCH":"2021-10-18T12:10:50.034720","BSTAR":"0.00011883000000","COUNTRY_CODE":"US"}];
